[{"OBJECT_NAME":"FLOCK 4G-30","OBJECT_ID":"2025-009BY","EPOCH":"2026-03-09T17:00:32.842080","MEAN_MOTION":15.27244548,"ECCENTRICITY":0.00037948,"INCLINATION":97.3969,"RA_OF_ASC_NODE":150.6012,"ARG_OF_PERICENTER":342.4152,"MEAN_ANOMALY":17.6955,"EPHEMERIS_TYPE":0,"CLASSIFICATION_TYPE":"U","NORAD_CAT_ID":62679,"ELEMENT_SET_NO":999,"REV_AT_EPOCH":12134,"BSTAR":0.00049474629,"MEAN_MOTION_DOT":0.00013147,"MEAN_MOTION_DDOT":0},{"OBJECT_NAME":"STARLINK-35834","OBJECT_ID":"2025-268P","EPOCH":"2026-03-09T03:50:22.087104","MEAN_MOTION":15.27613968,"ECCENTRICITY":2.792e-5,"INCLINATION":42.9969,"RA_OF_ASC_NODE":350.5009,"ARG_OF_PERICENTER":237.3828,"MEAN_ANOMALY":122.6996,"EPHEMERIS_TYPE":0,"CLASSIFICATION_TYPE":"U","NORAD_CAT_ID":66570,"ELEMENT_SET_NO":999,"REV_AT_EPOCH":1787,"BSTAR":0.0011225519,"MEAN_MOTION_DOT":0.00030789,"MEAN_MOTION_DDOT":0}]
